{
  "type": "FeatureCollection",
  "features": [
    {
      "type": "Feature",
      "properties": {
        "norad_id": 31235,
        "name": "FENGYUN 1C DEB",
        "group": "fengyun-1c-debris",
        "lat": -2.808808231173405,
        "lon": -37.13515568220957,
        "alt_km": 961.7287915964989,
        "timestamp": "2025-12-21T09:37:22.935857+00:00",
        "meta_object_name": "FENGYUN 1C DEB",
        "meta_object_id": "1999-025BLR",
        "meta_epoch": "2025-12-17T03:12:21.896928",
        "meta_mean_motion": 14.18676374,
        "meta_eccentricity": 0.01797032,
        "meta_inclination": 98.4672,
        "meta_ra_of_asc_node": 139.2065,
        "meta_arg_of_pericenter": 9.163,
        "meta_mean_anomaly": 351.2754,
        "meta_ephemeris_type": 0,
        "meta_classification_type": "U",
        "meta_norad_cat_id": 31235,
        "meta_element_set_no": 999,
        "meta_rev_at_epoch": 63229,
        "meta_bstar": 0.0023921437,
        "meta_mean_motion_dot": 5.786e-05,
        "meta_mean_motion_ddot": 0,
        "tle_line1": "1 31235U 99025BLR 25351.13358677  .00005786  00000+0  23921-2 0  9999",
        "tle_line2": "2 31235  98.4672 139.2065 0179703   9.1630 351.2754 14.18676374632290"
      },
      "geometry": {
        "type": "Point",
        "coordinates": [
          -37.13515568220957,
          -2.808808231173405
        ]
      }
    },
    {
      "type": "Feature",
      "properties": {
        "norad_id": 31236,
        "name": "FENGYUN 1C DEB",
        "group": "fengyun-1c-debris",
        "lat": 60.572854682955494,
        "lon": 145.3389142062193,
        "alt_km": 950.1729672392385,
        "timestamp": "2025-12-21T09:37:22.935868+00:00",
        "meta_object_name": "FENGYUN 1C DEB",
        "meta_object_id": "1999-025BLS",
        "meta_epoch": "2025-12-17T14:59:05.453088",
        "meta_mean_motion": 13.85915823,
        "meta_eccentricity": 0.03148984,
        "meta_inclination": 98.5449,
        "meta_ra_of_asc_node": 306.4287,
        "meta_arg_of_pericenter": 33.45,
        "meta_mean_anomaly": 328.612,
        "meta_ephemeris_type": 0,
        "meta_classification_type": "U",
        "meta_norad_cat_id": 31236,
        "meta_element_set_no": 999,
        "meta_rev_at_epoch": 61092,
        "meta_bstar": 0.0042154512,
        "meta_mean_motion_dot": 7.112e-05,
        "meta_mean_motion_ddot": 0,
        "tle_line1": "1 31236U 99025BLS 25351.62436867  .00007112  00000+0  42155-2 0  9997",
        "tle_line2": "2 31236  98.5449 306.4287 0314898  33.4500 328.6120 13.85915823610929"
      },
      "geometry": {
        "type": "Point",
        "coordinates": [
          145.3389142062193,
          60.572854682955494
        ]
      }
    },
    {
      "type": "Feature",
      "properties": {
        "norad_id": 31237,
        "name": "FENGYUN 1C DEB",
        "group": "fengyun-1c-debris",
        "lat": 20.391334616570894,
        "lon": -9.135046687930869,
        "alt_km": 752.4090980529663,
        "timestamp": "2025-12-21T09:37:22.935878+00:00",
        "meta_object_name": "FENGYUN 1C DEB",
        "meta_object_id": "1999-025BLT",
        "meta_epoch": "2025-12-20T06:41:10.704768",
        "meta_mean_motion": 14.31411651,
        "meta_eccentricity": 0.00885751,
        "meta_inclination": 98.4534,
        "meta_ra_of_asc_node": 352.9414,
        "meta_arg_of_pericenter": 326.6082,
        "meta_mean_anomaly": 32.9534,
        "meta_ephemeris_type": 0,
        "meta_classification_type": "U",
        "meta_norad_cat_id": 31237,
        "meta_element_set_no": 999,
        "meta_rev_at_epoch": 97374,
        "meta_bstar": 0.00040991472,
        "meta_mean_motion_dot": 1.092e-05,
        "meta_mean_motion_ddot": 0,
        "tle_line1": "1 31237U 99025BLT 25354.27859612  .00001092  00000+0  40991-3 0  9997",
        "tle_line2": "2 31237  98.4534 352.9414 0088575 326.6082  32.9534 14.31411651973742"
      },
      "geometry": {
        "type": "Point",
        "coordinates": [
          -9.135046687930869,
          20.391334616570894
        ]
      }
    },
    {
      "type": "Feature",
      "properties": {
        "norad_id": 31239,
        "name": "FENGYUN 1C DEB",
        "group": "fengyun-1c-debris",
        "lat": -79.04768853663612,
        "lon": 117.30268740783237,
        "alt_km": 866.9339466405818,
        "timestamp": "2025-12-21T09:37:22.935888+00:00",
        "meta_object_name": "FENGYUN 1C DEB",
        "meta_object_id": "1999-025BLV",
        "meta_epoch": "2025-12-20T10:58:17.527584",
        "meta_mean_motion": 14.0987113,
        "meta_eccentricity": 0.00496696,
        "meta_inclination": 98.7581,
        "meta_ra_of_asc_node": 349.1915,
        "meta_arg_of_pericenter": 176.084,
        "meta_mean_anomaly": 339.0502,
        "meta_ephemeris_type": 0,
        "meta_classification_type": "U",
        "meta_norad_cat_id": 31239,
        "meta_element_set_no": 999,
        "meta_rev_at_epoch": 96120,
        "meta_bstar": 0.00032343145,
        "meta_mean_motion_dot": 5.33e-06,
        "meta_mean_motion_ddot": 0,
        "tle_line1": "1 31239U 99025BLV 25354.45714731  .00000533  00000+0  32343-3 0  9992",
        "tle_line2": "2 31239  98.7581 349.1915 0049669 176.0840 339.0502 14.09871130961204"
      },
      "geometry": {
        "type": "Point",
        "coordinates": [
          117.30268740783237,
          -79.04768853663612
        ]
      }
    },
    {
      "type": "Feature",
      "properties": {
        "norad_id": 31241,
        "name": "FENGYUN 1C DEB",
        "group": "fengyun-1c-debris",
        "lat": 80.11176150101865,
        "lon": 31.844793697370644,
        "alt_km": 732.7430966178581,
        "timestamp": "2025-12-21T09:37:22.935898+00:00",
        "meta_object_name": "FENGYUN 1C DEB",
        "meta_object_id": "1999-025BLX",
        "meta_epoch": "2025-12-19T08:47:03.960384",
        "meta_mean_motion": 14.38721088,
        "meta_eccentricity": 0.0066948,
        "meta_inclination": 99.2354,
        "meta_ra_of_asc_node": 140.6878,
        "meta_arg_of_pericenter": 161.6976,
        "meta_mean_anomaly": 198.6641,
        "meta_ephemeris_type": 0,
        "meta_classification_type": "U",
        "meta_norad_cat_id": 31241,
        "meta_element_set_no": 999,
        "meta_rev_at_epoch": 97786,
        "meta_bstar": 0.00043547,
        "meta_mean_motion_dot": 1.321e-05,
        "meta_mean_motion_ddot": 0,
        "tle_line1": "1 31241U 99025BLX 25353.36601806  .00001321  00000+0  43547-3 0  9996",
        "tle_line2": "2 31241  99.2354 140.6878 0066948 161.6976 198.6641 14.38721088977862"
      },
      "geometry": {
        "type": "Point",
        "coordinates": [
          31.844793697370644,
          80.11176150101865
        ]
      }
    },
    {
      "type": "Feature",
      "properties": {
        "norad_id": 31243,
        "name": "FENGYUN 1C DEB",
        "group": "fengyun-1c-debris",
        "lat": 63.094062388538354,
        "lon": -126.94593238755323,
        "alt_km": 820.649871271251,
        "timestamp": "2025-12-21T09:37:22.935908+00:00",
        "meta_object_name": "FENGYUN 1C DEB",
        "meta_object_id": "1999-025BLZ",
        "meta_epoch": "2025-12-18T09:24:14.505120",
        "meta_mean_motion": 14.07185132,
        "meta_eccentricity": 0.00662196,
        "meta_inclination": 98.7499,
        "meta_ra_of_asc_node": 32.4739,
        "meta_arg_of_pericenter": 152.7117,
        "meta_mean_anomaly": 207.7557,
        "meta_ephemeris_type": 0,
        "meta_classification_type": "U",
        "meta_norad_cat_id": 31243,
        "meta_element_set_no": 999,
        "meta_rev_at_epoch": 69387,
        "meta_bstar": 0.00075786632,
        "meta_mean_motion_dot": 1.253e-05,
        "meta_mean_motion_ddot": 0,
        "tle_line1": "1 31243U 99025BLZ 25352.39183455  .00001253  00000+0  75787-3 0  9990",
        "tle_line2": "2 31243  98.7499  32.4739 0066219 152.7117 207.7557 14.07185132693875"
      },
      "geometry": {
        "type": "Point",
        "coordinates": [
          -126.94593238755323,
          63.094062388538354
        ]
      }
    },
    {
      "type": "Feature",
      "properties": {
        "norad_id": 31244,
        "name": "FENGYUN 1C DEB",
        "group": "fengyun-1c-debris",
        "lat": 68.2628421085632,
        "lon": -97.47021952728907,
        "alt_km": 809.1913410026873,
        "timestamp": "2025-12-21T09:37:22.935918+00:00",
        "meta_object_name": "FENGYUN 1C DEB",
        "meta_object_id": "1999-025BMA",
        "meta_epoch": "2025-12-07T22:21:36.542016",
        "meta_mean_motion": 14.06237413,
        "meta_eccentricity": 0.01023168,
        "meta_inclination": 99.037,
        "meta_ra_of_asc_node": 45.5611,
        "meta_arg_of_pericenter": 188.335,
        "meta_mean_anomaly": 171.6122,
        "meta_ephemeris_type": 0,
        "meta_classification_type": "U",
        "meta_norad_cat_id": 31244,
        "meta_element_set_no": 999,
        "meta_rev_at_epoch": 57572,
        "meta_bstar": 0.00047777338,
        "meta_mean_motion_dot": 7.8e-06,
        "meta_mean_motion_ddot": 0,
        "tle_line1": "1 31244U 99025BMA 25341.93167294  .00000780  00000+0  47777-3 0  9994",
        "tle_line2": "2 31244  99.0370  45.5611 0102316 188.3350 171.6122 14.06237413575724"
      },
      "geometry": {
        "type": "Point",
        "coordinates": [
          -97.47021952728907,
          68.2628421085632
        ]
      }
    }
  ]
}